[{"OBJECT_NAME":"YAOGAN-40 01A","OBJECT_ID":"2023-139A","EPOCH":"2026-03-09T23:20:31.440768","MEAN_MOTION":14.12429316,"ECCENTRICITY":0.00020937,"INCLINATION":85.9907,"RA_OF_ASC_NODE":304.5051,"ARG_OF_PERICENTER":91.437,"MEAN_ANOMALY":268.7053,"EPHEMERIS_TYPE":0,"CLASSIFICATION_TYPE":"U","NORAD_CAT_ID":57830,"ELEMENT_SET_NO":999,"REV_AT_EPOCH":12869,"BSTAR":6.725684e-5,"MEAN_MOTION_DOT":1.43e-6,"MEAN_MOTION_DDOT":0},{"OBJECT_NAME":"FENGYUN 1C DEB","OBJECT_ID":"1999-025EMG","EPOCH":"2026-03-02T06:45:26.055648","MEAN_MOTION":13.95560847,"ECCENTRICITY":0.01128132,"INCLINATION":98.9572,"RA_OF_ASC_NODE":71.8049,"ARG_OF_PERICENTER":253.4868,"MEAN_ANOMALY":163.8985,"EPHEMERIS_TYPE":0,"CLASSIFICATION_TYPE":"U","NORAD_CAT_ID":37715,"ELEMENT_SET_NO":999,"REV_AT_EPOCH":58913,"BSTAR":0.00041398537,"MEAN_MOTION_DOT":5.5e-6,"MEAN_MOTION_DDOT":0}]
